# From MPEC 2025-W75
421P/McNaught,e,10.0742,55.3033,259.8376,5.073498,0.0862468,0.67441637,159.8798,02/19.0/2026,2000,g 14.0,4.0
# From MPEC 2025-W75
422P/Christensen,e,39.5799,36.0077,304.7234,6.271456,0.0627555,0.50533979,94.2088,02/19.0/2026,2000,g 11.0,4.0
# From MPEC 2025-W75
423P/Lemmon,e,8.3401,33.2991,81.1722,6.185461,0.0640687,0.12277246,102.7366,02/19.0/2026,2000,g  8.0,4.0
# From MPEC 2025-W75
424P/LaSagra,e,8.6817,51.1955,312.5702,4.421735,0.1060022,0.69003995,166.7182,02/19.0/2026,2000,g 17.0,4.0
# From MPEC 2025-W75
425P/Kowalski,e,16.4070,210.0930,201.0275,6.354189,0.0615338,0.54336477,99.2172,02/19.0/2026,2000,g 12.0,4.0
# From MPEC 2025-W75
426P/PANSTARRS,e,17.7840,280.3955,118.3875,3.186196,0.1732987,0.16084090,154.7433,02/19.0/2026,2000,g 13.5,4.0
# From MPEC 2025-X35
427P/ATLAS,e,11.8650,252.3250,99.6165,3.163550,0.1751628,0.31520157,187.2326,02/19.0/2026,2000,g 14.0,4.0
# From MPEC 2025-W75
428P/Gibbs,e,8.5024,299.3052,36.8741,3.489359,0.1512118,0.51807591,263.6864,02/19.0/2026,2000,g 15.0,4.0
# From MPEC 2025-W75
429P/LINEAR-Hill,e,7.5140,321.9972,75.7534,3.556546,0.1469472,0.49053777,221.7622,02/19.0/2026,2000,g 15.5,4.0
# From MPEC 2025-W75
430P/Scotti,e,4.4762,54.6363,94.4855,3.102546,0.1803544,0.50049648,277.5067,02/19.0/2026,2000,g 16.5,4.0
# From MPEC 2025-W75
431P/Scotti,e,22.3734,202.8280,200.0148,3.477573,0.1519811,0.47708665,222.9072,02/19.0/2026,2000,g 14.0,4.0
# From MPEC 2025-W75
432P/PANSTARRS,e,10.0668,239.1305,105.2258,3.038879,0.1860519,0.24072028,304.3044,02/19.0/2026,2000,g 17.0,4.0
# From MPEC 2025-W75
434P/Tenagra,e,6.3365,288.9090,128.4827,4.137125,0.1171268,0.27398554,184.6018,02/19.0/2026,2000,g 13.0,4.0
# From MPEC 2025-W75
435P/PANSTARRS,e,18.8745,98.5237,244.1744,3.022170,0.1875969,0.31745866,313.1730,02/19.0/2026,2000,g 17.0,4.0
# From MPEC 2025-W75
436P/Garradd,e,20.1995,87.1594,282.7665,5.937045,0.0681316,0.66871359,104.5727,02/19.0/2026,2000,g 14.5,4.0
# From MPEC 2025-W75
437P/Lemmon-PANSTARRS,e,3.6884,245.8424,207.1406,4.570610,0.1008656,0.25489035,128.9484,02/19.0/2026,2000,g 13.0,4.0
# From MPEC 2025-W75
438P/Christensen,e,8.2806,260.1096,58.9449,3.853758,0.1302799,0.41409117,280.1343,02/19.0/2026,2000,g 14.5,4.0
# From MPEC 2025-W75
439P/LINEAR,e,7.1116,56.4008,342.1416,3.492307,0.1510203,0.46883812,247.3408,02/19.0/2026,2000,g 13.5,4.0
# From MPEC 2025-W75
440P/Kobayashi,e,12.3559,328.7881,183.3194,8.582195,0.0392018,0.76104371,55.7154,02/19.0/2026,2000,g 15.5,4.0
# From MPEC 2025-W75
441P/PANSTARRS,e,2.5746,143.5871,178.8337,4.130781,0.1173967,0.19437420,19.1127,02/19.0/2026,2000,g 13.5,4.0
# From MPEC 2025-W75
442P/McNaught,e,6.0590,31.8695,310.6016,4.949542,0.0895069,0.53277895,114.7455,02/19.0/2026,2000,g 13.5,4.0
# From MPEC 2025-W75
443P/PANSTARRS-Christensen,e,19.8882,108.9322,145.0222,4.124235,0.1176763,0.28278440,144.6521,02/19.0/2026,2000,g 13.5,4.0
# From MPEC 2025-W75
444P/WISE-PANSTARRS,e,22.6738,88.1976,172.7672,3.480446,0.1517930,0.55435375,202.6367,02/19.0/2026,2000,g 17.0,4.0
# From MPEC 2025-W75
445P/Lemmon-PANSTARRS,e,1.0894,126.5995,213.0716,4.043447,0.1212206,0.41468456,155.5388,02/19.0/2026,2000,g 15.0,4.0
# From MPEC 2025-W75
446P/McNaught,e,16.6535,336.2851,344.5906,4.556423,0.1013370,0.64705812,138.1322,02/19.0/2026,2000,g 16.5,4.0
# From MPEC 2025-W75
447P/Sheppard-Tholen,e,7.4418,302.6390,97.3118,5.622112,0.0739358,0.17688270,95.0091,02/19.0/2026,2000,g 12.0,4.0
# From MPEC 2025-W75
448P/PANSTARRS,e,12.1424,161.7472,218.8058,3.637162,0.1420889,0.41784265,179.3624,02/19.0/2026,2000,g 16.0,4.0
# From MPEC 2025-W75
449P/Leonard,e,15.4676,242.5158,176.7851,3.599499,0.1443248,0.47966236,275.8174,02/19.0/2026,2000,g 16.0,4.0
# From MPEC 2026-A90
450P/LONEOS,e,11.0064,123.8079,27.7703,7.786397,0.0453627,0.30787263,342.3621,02/19.0/2026,2000,g  6.5,4.0
# From MPEC 2025-W75
451P/Christensen,e,26.4879,300.8612,186.8330,6.352965,0.0615516,0.55931027,72.5569,02/19.0/2026,2000,g 13.5,4.0
# From MPEC 2025-W75
452P/Sheppard-Jewitt,e,6.4225,123.6595,37.1381,7.314995,0.0498176,0.42883200,51.2925,02/19.0/2026,2000,g  9.0,4.0
# From MPEC 2025-W75
453P/WISE-Lemmon,e,27.0516,42.8823,70.9352,5.469313,0.0770557,0.58316831,83.4890,02/19.0/2026,2000,g 14.0,4.0
# From MPEC 2025-W75
454P/PANSTARRS,e,19.8049,54.5865,20.2355,4.212629,0.1139920,0.36119936,148.5705,02/19.0/2026,2000,g 14.0,4.0
# From MPEC 2025-W75
455P/PANSTARRS,e,14.1335,146.1735,237.5342,3.154016,0.1759577,0.30417080,191.8741,02/19.0/2026,2000,g 17.0,4.0
# From MPEC 2025-W75
456P/PANSTARRS,e,16.9650,243.1367,232.9744,3.168493,0.1747531,0.11557161,54.2214,02/19.0/2026,2000,g 13.5,4.0
# From MPEC 2025-W75
457P/Lemmon-PANSTARRS,e,5.2257,175.9620,104.3035,2.645135,0.2291038,0.11823642,125.5654,02/19.0/2026,2000,g 15.5,4.0
# From MPEC 2025-W75
458P/Jahn,e,13.6217,1.5425,104.9895,3.859760,0.1299762,0.31722200,156.8751,02/19.0/2026,2000,g 14.0,4.0
# From MPEC 2025-W75
459P/Catalina,e,7.1726,256.9841,205.2435,3.240531,0.1689584,0.57785694,184.6891,02/19.0/2026,2000,g 15.5,4.0
# From MPEC 2025-W75
460P/PANSTARRS,e,18.9002,180.5166,351.9281,3.027814,0.1870726,0.66431704,319.8560,02/19.0/2026,2000,g 21.0,4.0
# From MPEC 2025-W75
461P/WISE,e,18.3943,194.3701,174.8224,3.144878,0.1767252,0.56938826,282.5711,02/19.0/2026,2000,g 18.5,4.0
# From MPEC 2025-W75
462P/LONEOS-PANSTARRS,e,7.0638,322.6095,4.0976,4.854352,0.0921525,0.57897977,119.6855,02/19.0/2026,2000,g 17.0,4.0
# From MPEC 2025-W75
463P/NEOWISE,e,29.2943,283.2151,216.3478,2.973905,0.1921823,0.82602436,203.1164,02/19.0/2026,2000,g 18.0,4.0
# From MPEC 2025-W75
464P/PANSTARRS,e,21.6735,309.5781,267.4733,4.682681,0.0972662,0.28081425,105.7940,02/19.0/2026,2000,g 10.5,4.0
# From MPEC 2025-W75
465P/Hill,e,25.8626,217.9187,140.9556,6.001910,0.0670301,0.61289862,68.2055,02/19.0/2026,2000,g 12.5,4.0
# From MPEC 2025-W75
466P/PANSTARRS,e,16.8510,114.9863,196.5738,3.938141,0.1261151,0.47674699,132.5085,02/19.0/2026,2000,g 14.0,4.0
# From MPEC 2025-W75
467P/LINEAR-Grauer,e,2.4795,43.2617,267.0662,5.823421,0.0701353,0.05415938,83.1781,02/19.0/2026,2000,g  9.0,4.0
# From MPEC 2025-W75
468P/SidingSpring,e,50.4567,356.1325,322.5417,7.113000,0.0519547,0.44464479,42.6667,02/19.0/2026,2000,g 11.5,4.0
# From MPEC 2025-W75
469P/PANSTARRS,e,20.1704,178.9637,43.4944,4.344142,0.1088549,0.30826226,7.9042,02/19.0/2026,2000,g 13.5,4.0
# From MPEC 2025-W75
470P/PANSTARRS,e,8.8440,246.1569,151.6312,4.461155,0.1046004,0.38919497,83.2242,02/19.0/2026,2000,g 15.5,4.0
# From MPEC 2025-W75
471P/LINEAR-Lemmon,e,4.7967,283.3095,94.7044,5.685647,0.0727000,0.62752869,57.6108,02/19.0/2026,2000,g 12.0,4.0
# From MPEC 2025-W75
472P/NEAT-LINEAR,e,10.8281,205.7940,218.7850,7.757900,0.0456129,0.56356118,26.7081,02/19.0/2026,2000,g 10.5,4.0
# From MPEC 2025-W75
473P/NEAT,e,56.8786,22.1915,42.9507,7.973892,0.0437722,0.82354668,31.6827,02/19.0/2026,2000,g 13.5,4.0
# From MPEC 2025-W75
474P/Hogan,e,1.0968,26.7524,11.2696,3.131104,0.1778926,0.18781689,168.9227,02/19.0/2026,2000,g 15.5,4.0
# From MPEC 2025-W75
475P/Spacewatch-LINEAR,e,14.5243,147.3498,40.4356,7.322011,0.0497460,0.44313425,31.1980,02/19.0/2026,2000,g 11.0,4.0
# From MPEC 2025-W75
476P/PANSTARRS,e,19.0052,57.0494,46.7549,4.774865,0.0944631,0.34575885,46.3314,02/19.0/2026,2000,g 12.5,4.0
# From MPEC 2025-W75
477P/PANSTARRS,e,8.9140,59.1372,305.8479,3.001357,0.1895516,0.41760657,148.9121,02/19.0/2026,2000,g 14.5,4.0
# From MPEC 2025-W75
478P/ATLAS,e,12.5255,127.2579,13.2835,3.648839,0.1414074,0.34383051,93.0003,02/19.0/2026,2000,g 13.5,4.0
# From MPEC 2025-W75
479P/Elenin,e,15.3985,295.8281,263.4951,5.622716,0.0739239,0.77903031,48.3946,02/19.0/2026,2000,g 15.0,4.0
# From MPEC 2025-W75
480P/PANSTARRS,e,13.7147,229.9857,214.4927,4.612414,0.0994974,0.24615802,102.6789,02/19.0/2026,2000,g 12.0,4.0
# From MPEC 2025-W75
481P/Lemmon-PANSTARRS,e,6.0826,93.5511,356.8643,4.683412,0.0972435,0.34334459,92.9212,02/19.0/2026,2000,g 13.5,4.0
# From MPEC 2025-W75
482P/PANSTARRS,e,24.4898,126.0703,339.7568,3.757570,0.1353142,0.49231501,134.3286,02/19.0/2026,2000,g 13.5,4.0
# From MPEC 2025-W75
483P/PANSTARRS,e,14.1753,198.8927,49.7730,3.194360,0.1726348,0.22152653,250.9173,02/19.0/2026,2000,g 16.5,4.0
# From MPC186638
483P-A/PANSTARRS,e,14.1753,198.8928,49.7733,3.194360,0.1726348,0.22152692,250.9169,02/19.0/2026,2000,g 13.5,4.0
# From MPC185666
483P-B/PANSTARRS,e,14.1761,198.8922,49.7641,3.194275,0.1726416,0.22147041,250.9533,02/19.0/2026,2000,g 17.0,4.0
# From MPEC 2025-W75
484P/Spacewatch,e,14.4743,265.3634,240.8474,3.755877,0.1354057,0.43319681,258.3775,02/19.0/2026,2000,g 16.0,4.0
# From MPEC 2025-W75
485P/Sheppard-Tholen,e,10.0159,261.6462,196.1634,6.853676,0.0549312,0.41713375,49.9037,02/19.0/2026,2000,g 13.0,4.0
# From MPEC 2025-YF1
486P/Leonard,e,2.2097,219.0231,93.9341,3.626719,0.1427030,0.36334364,45.8370,02/19.0/2026,2000,g 14.5,4.0
# From MPEC 2025-W75
487P/SidingSpring,e,39.3663,49.2004,0.8370,5.159933,0.0840888,0.64827870,40.9073,02/19.0/2026,2000,g 13.5,4.0
# From MPEC 2025-W75
488P/NEAT-PANSTARRS,e,11.5358,323.2026,3.0083,3.765339,0.1348956,0.55143848,86.1935,02/19.0/2026,2000,g 16.5,4.0
# From MPEC 2024-Q14
489P/Denning,e,4.0260,20.5972,109.4184,4.424264,0.1059114,0.64709486,8.1232,02/19.0/2026,2000,g 15.5,4.0
# From MPEC 2025-W75
490P/ATLAS,e,12.2682,307.5811,332.6029,3.031025,0.1867755,0.64676566,95.0653,02/19.0/2026,2000,g 21.0,4.0
# From MPEC 2025-W75
491P/Spacewatch-PANSTARRS,e,9.3671,311.6836,298.8264,5.012501,0.0878258,0.25871504,46.6629,02/19.0/2026,2000,g  9.5,4.0
# From MPEC 2025-W75
492P/LINEAR,e,11.4008,11.3053,40.9793,5.757481,0.0713436,0.69044744,41.2825,02/19.0/2026,2000,g 15.0,4.0
# From MPEC 2026-A90
493P/LONEOS,e,24.1072,1.0695,83.2470,7.180694,0.0512218,0.46760872,1.8368,02/19.0/2026,2000,g 12.0,2.0
# From MPEC 2025-W75
494P/PANSTARRS,e,7.7896,245.0440,48.8900,3.794395,0.1333492,0.35658936,83.8921,02/19.0/2026,2000,g 16.0,4.0
# From MPEC 2026-A24
495P/Christensen,e,26.3571,291.6125,141.3354,4.766627,0.0947081,0.27417134,11.3322,02/19.0/2026,2000,g 11.5,4.0
# From MPEC 2025-W75
